[{"OBJECT_NAME":"CZ-3A R/B","OBJECT_ID":"2014-090B","EPOCH":"2026-04-04T20:47:28.502304","MEAN_MOTION":2.26163578,"ECCENTRICITY":0.72682084,"INCLINATION":24.814,"RA_OF_ASC_NODE":66.0561,"ARG_OF_PERICENTER":195.7617,"MEAN_ANOMALY":115.9055,"EPHEMERIS_TYPE":0,"CLASSIFICATION_TYPE":"U","NORAD_CAT_ID":40368,"ELEMENT_SET_NO":999,"REV_AT_EPOCH":9067,"BSTAR":0.0010033307,"MEAN_MOTION_DOT":9.85e-6,"MEAN_MOTION_DDOT":0},{"OBJECT_NAME":"FENGYUN 2G AKM","OBJECT_ID":"2014-090C","EPOCH":"2026-04-04T13:04:10.325280","MEAN_MOTION":0.99585208,"ECCENTRICITY":0.0047177,"INCLINATION":7.3733,"RA_OF_ASC_NODE":69.4916,"ARG_OF_PERICENTER":172.7066,"MEAN_ANOMALY":187.4121,"EPHEMERIS_TYPE":0,"CLASSIFICATION_TYPE":"U","NORAD_CAT_ID":40369,"ELEMENT_SET_NO":999,"REV_AT_EPOCH":4090,"BSTAR":0,"MEAN_MOTION_DOT":1.16e-6,"MEAN_MOTION_DDOT":0},{"OBJECT_NAME":"MUOS-3","OBJECT_ID":"2015-002A","EPOCH":"2026-04-04T17:50:44.619072","MEAN_MOTION":1.00271481,"ECCENTRICITY":0.00516912,"INCLINATION":4.3802,"RA_OF_ASC_NODE":43.1507,"ARG_OF_PERICENTER":182.7753,"MEAN_ANOMALY":219.3664,"EPHEMERIS_TYPE":0,"CLASSIFICATION_TYPE":"U","NORAD_CAT_ID":40374,"ELEMENT_SET_NO":999,"REV_AT_EPOCH":4085,"BSTAR":0,"MEAN_MOTION_DOT":-1.27e-6,"MEAN_MOTION_DDOT":0},{"OBJECT_NAME":"INMARSAT 5-F2","OBJECT_ID":"2015-005A","EPOCH":"2026-04-04T10:48:52.737696","MEAN_MOTION":1.00267937,"ECCENTRICITY":9.075e-5,"INCLINATION":0.0157,"RA_OF_ASC_NODE":193.3033,"ARG_OF_PERICENTER":187.1438,"MEAN_ANOMALY":279.538,"EPHEMERIS_TYPE":0,"CLASSIFICATION_TYPE":"U","NORAD_CAT_ID":40384,"ELEMENT_SET_NO":999,"REV_AT_EPOCH":4025,"BSTAR":0,"MEAN_MOTION_DOT":0,"MEAN_MOTION_DDOT":0},{"OBJECT_NAME":"BREEZE-M R/B","OBJECT_ID":"2015-005B","EPOCH":"2026-04-04T13:53:26.362176","MEAN_MOTION":1.11107278,"ECCENTRICITY":0.7561992,"INCLINATION":27.2646,"RA_OF_ASC_NODE":280.2401,"ARG_OF_PERICENTER":120.2876,"MEAN_ANOMALY":333.3875,"EPHEMERIS_TYPE":0,"CLASSIFICATION_TYPE":"U","NORAD_CAT_ID":40385,"ELEMENT_SET_NO":999,"REV_AT_EPOCH":4533,"BSTAR":0,"MEAN_MOTION_DOT":-3.85e-6,"MEAN_MOTION_DDOT":0},{"OBJECT_NAME":"ABS-3A","OBJECT_ID":"2015-010A","EPOCH":"2026-04-04T21:34:38.715744","MEAN_MOTION":1.0027153,"ECCENTRICITY":0.00014368,"INCLINATION":0.0117,"RA_OF_ASC_NODE":214.7486,"ARG_OF_PERICENTER":104.8169,"MEAN_ANOMALY":194.3262,"EPHEMERIS_TYPE":0,"CLASSIFICATION_TYPE":"U","NORAD_CAT_ID":40424,"ELEMENT_SET_NO":999,"REV_AT_EPOCH":4064,"BSTAR":0,"MEAN_MOTION_DOT":-2.6e-7,"MEAN_MOTION_DDOT":0},{"OBJECT_NAME":"EUTELSAT 115 WEST B","OBJECT_ID":"2015-010B","EPOCH":"2026-04-04T15:39:49.672800","MEAN_MOTION":1.00271591,"ECCENTRICITY":1.998e-5,"INCLINATION":0.0178,"RA_OF_ASC_NODE":54.0795,"ARG_OF_PERICENTER":210.0296,"MEAN_ANOMALY":48.918,"EPHEMERIS_TYPE":0,"CLASSIFICATION_TYPE":"U","NORAD_CAT_ID":40425,"ELEMENT_SET_NO":999,"REV_AT_EPOCH":4065,"BSTAR":0,"MEAN_MOTION_DOT":-2.5e-7,"MEAN_MOTION_DDOT":0},{"OBJECT_NAME":"MMS 1","OBJECT_ID":"2015-011A","EPOCH":"2026-04-04T22:00:01.999584","MEAN_MOTION":0.28313732,"ECCENTRICITY":0.83848335,"INCLINATION":71.1415,"RA_OF_ASC_NODE":349.8048,"ARG_OF_PERICENTER":165.8632,"MEAN_ANOMALY":24.5077,"EPHEMERIS_TYPE":0,"CLASSIFICATION_TYPE":"U","NORAD_CAT_ID":40482,"ELEMENT_SET_NO":999,"REV_AT_EPOCH":130,"BSTAR":0,"MEAN_MOTION_DOT":-1.278e-5,"MEAN_MOTION_DDOT":0},{"OBJECT_NAME":"MMS 2","OBJECT_ID":"2015-011B","EPOCH":"2026-04-04T22:00:01.999584","MEAN_MOTION":0.28313721,"ECCENTRICITY":0.83855813,"INCLINATION":71.1417,"RA_OF_ASC_NODE":349.807,"ARG_OF_PERICENTER":165.8692,"MEAN_ANOMALY":24.4925,"EPHEMERIS_TYPE":0,"CLASSIFICATION_TYPE":"U","NORAD_CAT_ID":40483,"ELEMENT_SET_NO":999,"REV_AT_EPOCH":130,"BSTAR":0,"MEAN_MOTION_DOT":-1.278e-5,"MEAN_MOTION_DDOT":0},{"OBJECT_NAME":"MMS 3","OBJECT_ID":"2015-011C","EPOCH":"2026-04-04T22:00:01.999584","MEAN_MOTION":0.28313675,"ECCENTRICITY":0.83848352,"INCLINATION":71.1443,"RA_OF_ASC_NODE":349.8116,"ARG_OF_PERICENTER":165.8635,"MEAN_ANOMALY":24.4972,"EPHEMERIS_TYPE":0,"CLASSIFICATION_TYPE":"U","NORAD_CAT_ID":40484,"ELEMENT_SET_NO":999,"REV_AT_EPOCH":130,"BSTAR":0,"MEAN_MOTION_DOT":-1.278e-5,"MEAN_MOTION_DDOT":0},{"OBJECT_NAME":"MMS 4","OBJECT_ID":"2015-011D","EPOCH":"2026-04-04T22:00:01.999584","MEAN_MOTION":0.28313633,"ECCENTRICITY":0.83843663,"INCLINATION":71.1418,"RA_OF_ASC_NODE":349.8069,"ARG_OF_PERICENTER":165.8709,"MEAN_ANOMALY":24.4839,"EPHEMERIS_TYPE":0,"CLASSIFICATION_TYPE":"U","NORAD_CAT_ID":40485,"ELEMENT_SET_NO":999,"REV_AT_EPOCH":130,"BSTAR":0,"MEAN_MOTION_DOT":-1.278e-5,"MEAN_MOTION_DDOT":0},{"OBJECT_NAME":"EXPRESS-AM7","OBJECT_ID":"2015-012A","EPOCH":"2026-04-04T19:49:15.732192","MEAN_MOTION":1.0026935,"ECCENTRICITY":0.0003126,"INCLINATION":0.0187,"RA_OF_ASC_NODE":214.2239,"ARG_OF_PERICENTER":155.4892,"MEAN_ANOMALY":160.7402,"EPHEMERIS_TYPE":0,"CLASSIFICATION_TYPE":"U","NORAD_CAT_ID":40505,"ELEMENT_SET_NO":999,"REV_AT_EPOCH":4027,"BSTAR":0,"MEAN_MOTION_DOT":0,"MEAN_MOTION_DDOT":0},{"OBJECT_NAME":"BEIDOU-3S IGSO-1S","OBJECT_ID":"2015-019A","EPOCH":"2026-03-23T06:58:51.098016","MEAN_MOTION":1.00268843,"ECCENTRICITY":0.0036261,"INCLINATION":49.3559,"RA_OF_ASC_NODE":296.4949,"ARG_OF_PERICENTER":190.1236,"MEAN_ANOMALY":255.118,"EPHEMERIS_TYPE":0,"CLASSIFICATION_TYPE":"U","NORAD_CAT_ID":40549,"ELEMENT_SET_NO":999,"REV_AT_EPOCH":4021,"BSTAR":0,"MEAN_MOTION_DOT":-1.63e-6,"MEAN_MOTION_DDOT":0},{"OBJECT_NAME":"THOR 7","OBJECT_ID":"2015-022A","EPOCH":"2026-04-04T21:20:25.145088","MEAN_MOTION":1.00272199,"ECCENTRICITY":0.00027033,"INCLINATION":0.0259,"RA_OF_ASC_NODE":115.7388,"ARG_OF_PERICENTER":262.4265,"MEAN_ANOMALY":134.4712,"EPHEMERIS_TYPE":0,"CLASSIFICATION_TYPE":"U","NORAD_CAT_ID":40613,"ELEMENT_SET_NO":999,"REV_AT_EPOCH":4008,"BSTAR":0,"MEAN_MOTION_DOT":-8.0e-8,"MEAN_MOTION_DDOT":0},{"OBJECT_NAME":"TURKMENALEM52E/MONACOSAT","OBJECT_ID":"2015-023A","EPOCH":"2026-04-04T21:35:22.893792","MEAN_MOTION":1.00270461,"ECCENTRICITY":0.00031118,"INCLINATION":0.0203,"RA_OF_ASC_NODE":111.8713,"ARG_OF_PERICENTER":265.8982,"MEAN_ANOMALY":191.2995,"EPHEMERIS_TYPE":0,"CLASSIFICATION_TYPE":"U","NORAD_CAT_ID":40617,"ELEMENT_SET_NO":999,"REV_AT_EPOCH":4011,"BSTAR":0,"MEAN_MOTION_DOT":1.05e-6,"MEAN_MOTION_DDOT":0},{"OBJECT_NAME":"DIRECTV 15","OBJECT_ID":"2015-026A","EPOCH":"2026-04-04T20:51:14.770944","MEAN_MOTION":1.00271442,"ECCENTRICITY":3.105e-5,"INCLINATION":0.0325,"RA_OF_ASC_NODE":93.8585,"ARG_OF_PERICENTER":65.8414,"MEAN_ANOMALY":243.407,"EPHEMERIS_TYPE":0,"CLASSIFICATION_TYPE":"U","NORAD_CAT_ID":40663,"ELEMENT_SET_NO":999,"REV_AT_EPOCH":3972,"BSTAR":0,"MEAN_MOTION_DOT":-1.02e-6,"MEAN_MOTION_DDOT":0},{"OBJECT_NAME":"SKY MEXICO-1","OBJECT_ID":"2015-026B","EPOCH":"2026-04-04T20:58:06.612096","MEAN_MOTION":1.00271822,"ECCENTRICITY":0.00025867,"INCLINATION":0.0164,"RA_OF_ASC_NODE":122.9188,"ARG_OF_PERICENTER":277.2162,"MEAN_ANOMALY":28.7648,"EPHEMERIS_TYPE":0,"CLASSIFICATION_TYPE":"U","NORAD_CAT_ID":40664,"ELEMENT_SET_NO":999,"REV_AT_EPOCH":3971,"BSTAR":0,"MEAN_MOTION_DOT":-2.34e-6,"MEAN_MOTION_DDOT":0}]
