CZ-3A R/B               
1 40368U 14090B   26094.86630211  .00000985  00000+0  10033-2 0  9993
2 40368  24.8140  66.0561 7268208 195.7617 115.9055  2.26163578 90673
FENGYUN 2G AKM          
1 40369U 14090C   26094.54456395  .00000116  00000+0  00000+0 0  9994
2 40369   7.3733  69.4916 0047177 172.7066 187.4121  0.99585208 40900
MUOS-3                  
1 40374U 15002A   26094.74357198 -.00000127  00000+0  00000+0 0  9990
2 40374   4.3802  43.1507 0051691 182.7753 219.3664  1.00271481 40854
INMARSAT 5-F2           
1 40384U 15005A   26094.45061039  .00000000  00000+0  00000+0 0  9997
2 40384   0.0157 193.3033 0000907 187.1438 279.5380  1.00267937 40254
BREEZE-M R/B            
1 40385U 15005B   26094.57877734 -.00000385  00000+0  00000+0 0  9995
2 40385  27.2646 280.2401 7561992 120.2876 333.3875  1.11107278 45336
ABS-3A                  
1 40424U 15010A   26094.89905921 -.00000026  00000+0  00000+0 0  9992
2 40424   0.0117 214.7486 0001436 104.8169 194.3262  1.00271530 40640
EUTELSAT 115 WEST B     
1 40425U 15010B   26094.65265825 -.00000025  00000+0  00000+0 0  9998
2 40425   0.0178  54.0795 0000199 210.0296  48.9180  1.00271591 40653
MMS 1                   
1 40482U 15011A   26094.91668981 -.00001278  00000+0  00000+0 0  9992
2 40482  71.1415 349.8048 8384833 165.8632  24.5077  0.28313732  1301
MMS 2                   
1 40483U 15011B   26094.91668981 -.00001278  00000+0  00000+0 0  9993
2 40483  71.1417 349.8070 8385581 165.8692  24.4925  0.28313721  1305
MMS 3                   
1 40484U 15011C   26094.91668981 -.00001278  00000+0  00000+0 0  9994
2 40484  71.1443 349.8116 8384835 165.8635  24.4972  0.28313675  1304
MMS 4                   
1 40485U 15011D   26094.91668981 -.00001278  00000+0  00000+0 0  9995
2 40485  71.1418 349.8069 8384366 165.8709  24.4839  0.28313633  1301
EXPRESS-AM7             
1 40505U 15012A   26094.82587653  .00000000  00000+0  00000+0 0  9996
2 40505   0.0187 214.2239 0003126 155.4892 160.7402  1.00269350 40270
BEIDOU-3S IGSO-1S       
1 40549U 15019A   26082.29086919 -.00000163  00000+0  00000+0 0  9999
2 40549  49.3559 296.4949 0036261 190.1236 255.1180  1.00268843 40213
THOR 7                  
1 40613U 15022A   26094.88917992 -.00000008  00000+0  00000+0 0  9995
2 40613   0.0259 115.7388 0002703 262.4265 134.4712  1.00272199 40089
TURKMENALEM52E/MONACOSAT
1 40617U 15023A   26094.89957053  .00000105  00000+0  00000+0 0  9990
2 40617   0.0203 111.8713 0003111 265.8982 191.2995  1.00270461 40116
DIRECTV 15              
1 40663U 15026A   26094.86892096 -.00000102  00000+0  00000+0 0  9994
2 40663   0.0325  93.8585 0000310  65.8414 243.4070  1.00271442 39723
SKY MEXICO-1            
1 40664U 15026B   26094.87368764 -.00000234  00000+0  00000+0 0  9992
2 40664   0.0164 122.9188 0002586 277.2162  28.7648  1.00271822 39710
